NORAD_CAT_ID,OBJECT_NAME,OBJECT_TYPE,EPOCH,MEAN_MOTION,ECCENTRICITY,INCLINATION,RA_OF_ASC_NODE,ARG_OF_PERICENTER,MEAN_ANOMALY,BSTAR,MEAN_MOTION_DOT,MEAN_MOTION_DDOT,TLE_LINE0,TLE_LINE1,TLE_LINE2,SEMIMAJOR_AXIS,PERIOD,APOGEE,PERIGEE,DECAYED
52357.0,STARLINK-3821,PAYLOAD,2022-11-07 04:41:25,15.08842936,0.0003026,53.2172,269.1652,25.9082,334.2061,8.0919e-05,1e-05,0.0,0 STARLINK-3821,1 52357U 22045AC  22311.19543349  .00001000  00000-0  80919-4 0  9994,2 52357  53.2172 269.1652 0003026  25.9082 334.2061 15.08842936 31832,6917.871,95.437,541.83,537.643,0.0
52357.0,STARLINK-3821,PAYLOAD,2022-11-07 15:49:08,15.08820503,0.0003078,53.2175,267.0835,25.4837,334.6306,0.00015689,2.208e-05,0.0,0 STARLINK-3821,1 52357U 22045AC  22311.65912780  .00002208  00000-0  15689-3 0  9996,2 52357  53.2175 267.0835 0003078  25.4837 334.6306 15.08820503 31905,6917.94,95.439,541.934,537.6759999999998,0.0
52357.0,STARLINK-3821,PAYLOAD,2022-11-08 06:07:35,15.08857264,0.0003055,53.2164,264.4059,27.9402,332.1754,0.00014792,2.068e-05,0.0,0 STARLINK-3821,1 52357U 22045AC  22312.25526726  .00002068  00000-0  14792-3 0  9992,2 52357  53.2164 264.4059 0003055  27.9402 332.1754 15.08857264 31995,6917.828,95.436,541.806,537.5790000000002,0.0
52357.0,STARLINK-3821,PAYLOAD,2022-11-08 15:39:53,15.08855011,0.0002856,53.218,262.623,23.6691,336.4432,0.00021354,3.113e-05,0.0,0 STARLINK-3821,1 52357U 22045AC  22312.65270324  .00003113  00000-0  21354-3 0  9990,2 52357  53.2180 262.6230 0002856  23.6691 336.4432 15.08855011 32051,6917.835,95.437,541.675,537.724,0.0
52357.0,STARLINK-3821,PAYLOAD,2022-11-09 05:58:22,15.08839677,0.0003311,53.2177,259.9488,25.8578,334.2579,-7.4822e-05,-1.4800000000000002e-05,0.0,0 STARLINK-3821,1 52357U 22045AC  22313.24887669 -.00001480  00000-0 -74822-4 0  9998,2 52357  53.2177 259.9488 0003311  25.8578 334.2579 15.08839677 32144,6917.880999999999,95.438,542.0369999999998,537.456,0.0
52357.0,STARLINK-3821,PAYLOAD,2022-11-09 20:16:51,15.08836654,0.0003446,53.2182,257.2743,24.6214,335.4942,-1.1629000000000004e-07,-2.91e-06,0.0,0 STARLINK-3821,1 52357U 22045AC  22313.84503489 -.00000291  00000-0 -11629-6 0  9996,2 52357  53.2182 257.2743 0003446  24.6214 335.4942 15.08836654 32237,6917.891,95.438,542.14,537.372,0.0
52357.0,STARLINK-3821,PAYLOAD,2022-11-10 02:38:24,15.08827603,0.0002628999999999,53.2162,256.0784,31.1645,328.9502,-0.000202,-3.501e-05,0.0,0 STARLINK-3821,1 52357U 22045AC  22314.11000586 -.00003501  00000-0 -20200-3 0  9996,2 52357  53.2162 256.0784 0002629  31.1645 328.9502 15.08827603 32277,6917.918000000002,95.438,541.602,537.965,0.0
52357.0,STARLINK-3821,PAYLOAD,2022-11-10 05:49:10,15.08834713,0.0003358,53.2185,255.4873,21.3491,338.764,-0.00021887,-3.77e-05,0.0,0 STARLINK-3821,1 52357U 22045AC  22314.24248491 -.00003770  00000-0 -21887-3 0  9999,2 52357  53.2185 255.4873 0003358  21.3491 338.7640 15.08834713 32298,6917.897,95.438,542.085,537.439,0.0
52357.0,STARLINK-3821,PAYLOAD,2022-11-11 05:39:57,15.08825717,0.0003082,53.2177,251.0262,22.8834,337.2295,1.2345e-05,-9.2e-07,0.0,0 STARLINK-3821,1 52357U 22045AC  22315.23608184 -.00000092  00000-0  12345-4 0  9991,2 52357  53.2177 251.0262 0003082  22.8834 337.2295 15.08825717 32445,6917.924,95.438,541.9209999999998,537.6569999999998,0.0
52357.0,STARLINK-3821,PAYLOAD,2022-11-11 19:58:25,15.088449800000005,0.0002926,53.2176,248.3499,21.7093,338.4023,-0.00023122,-3.967e-05,0.0,0 STARLINK-3821,1 52357U 22045AC  22315.83224360 -.00003967  00000-0 -23122-3 0  9996,2 52357  53.2176 248.3499 0002926  21.7093 338.4023 15.08844980 32531,6917.865,95.437,541.754,537.706,0.0
52357.0,STARLINK-3821,PAYLOAD,2022-11-12 05:30:44,15.08829016,0.0003019,53.2174,246.5656,21.276,338.8357,0.0001303,1.785e-05,0.0,0 STARLINK-3821,1 52357U 22045AC  22316.22968366  .00001785  00000-0  13030-3 0  9992,2 52357  53.2174 246.5656 0003019  21.2760 338.8357 15.08829016 32597,6917.9140000000025,95.438,541.867,537.69,0.0
52357.0,STARLINK-3821,PAYLOAD,2022-11-12 19:49:11,15.088463199999998,0.0003064,53.2174,243.8896,18.5479,341.5624,0.00016955,2.411e-05,0.0,0 STARLINK-3821,1 52357U 22045AC  22316.82583212  .00002411  00000-0  16955-3 0  9997,2 52357  53.2174 243.8896 0003064  18.5479 341.5624 15.08846320 32684,6917.861,95.437,541.846,537.606,0.0
52357.0,STARLINK-3821,PAYLOAD,2022-11-13 03:46:07,15.08848785,0.0002985,53.2176,242.4028,22.3489,337.7633,0.00017468,2.493e-05,0.0,0 STARLINK-3821,1 52357U 22045AC  22317.15702900  .00002493  00000-0  17468-3 0  9991,2 52357  53.2176 242.4028 0002985  22.3489 337.7633 15.08848785 32733,6917.854,95.437,541.784,537.654,0.0
52357.0,STARLINK-3821,PAYLOAD,2022-11-13 11:43:04,15.08831651,0.0003183,53.2179,240.9146,27.0388,333.077,3.6356e-05,2.9e-06,0.0,0 STARLINK-3821,1 52357U 22045AC  22317.48824549  .00000290  00000-0  36356-4 0  9992,2 52357  53.2179 240.9146 0003183  27.0388 333.0770 15.08831651 32781,6917.906,95.438,541.9730000000002,537.569,0.0
52357.0,STARLINK-3821,PAYLOAD,2022-11-13 19:39:59,15.08838507,0.0002873,53.2173,239.4274,24.0501,336.0625,2.8127e-06,-2.44e-06,0.0,0 STARLINK-3821,1 52357U 22045AC  22317.81944210 -.00000244  00000-0  28127-5 0  9995,2 52357  53.2173 239.4274 0002873  24.0501 336.0625 15.08838507 32834,6917.885,95.438,541.737,537.762,0.0
52357.0,STARLINK-3821,PAYLOAD,2022-11-14 11:33:51,15.08835354,0.0002754,53.2171,236.4557,24.4772,335.6351,-3.5411000000000007e-06,-3.45e-06,0.0,0 STARLINK-3821,1 52357U 22045AC  22318.48184367 -.00000345  00000-0 -35411-5 0  9995,2 52357  53.2171 236.4557 0002754  24.4772 335.6351 15.08835354 32934,6917.895,95.438,541.665,537.854,0.0
52357.0,STARLINK-3821,PAYLOAD,2022-11-14 17:55:23,15.08845448,0.0003081,53.218,235.2652,23.9498,336.1637,-4.9183e-05,-1.072e-05,0.0,0 STARLINK-3821,1 52357U 22045AC  22318.74679845 -.00001072  00000-0 -49183-4 0  9992,2 52357  53.2180 235.2652 0003081  23.9498 336.1637 15.08845448 32972,6917.864000000001,95.437,541.86,537.597,0.0
52357.0,STARLINK-3821,PAYLOAD,2022-11-14 22:41:32,15.08843817,0.0003164,53.2183,234.373,23.8263,336.2876,-4.7349e-05,-1.042e-05,0.0,0 STARLINK-3821,1 52357U 22045AC  22318.94551891 -.00001042  00000-0 -47349-4 0  9993,2 52357  53.2183 234.3730 0003164  23.8263 336.2876 15.08843817 33002,6917.869000000002,95.437,541.923,537.545,0.0
52357.0,STARLINK-3821,PAYLOAD,2022-11-15 11:24:38,15.08835897,0.0003173,53.2175,231.9943,25.8672,334.2478,-8.433799999999999e-05,-1.631e-05,0.0,0 STARLINK-3821,1 52357U 22045AC  22319.47544507 -.00001631  00000-0 -84338-4 0  9991,2 52357  53.2175 231.9943 0003173  25.8672 334.2478 15.08835897 33081,6917.893,95.438,541.953,537.563,0.0
52357.0,STARLINK-3821,PAYLOAD,2022-11-16 11:15:25,15.08839061,0.0003153,53.2177,227.5337,28.8508,331.2658,0.00012699,1.733e-05,0.0,0 STARLINK-3821,1 52357U 22045AC  22320.46904010  .00001733  00000-0  12699-3 0  9992,2 52357  53.2177 227.5337 0003153  28.8508 331.2658 15.08839061 33231,6917.8830000000025,95.438,541.929,537.567,0.0
52357.0,STARLINK-3821,PAYLOAD,2022-11-16 23:58:30,15.088343900000002,0.0003107,53.2177,225.1548,27.8178,332.2979,-1.0796e-06,-3.06e-06,0.0,0 STARLINK-3821,1 52357U 22045AC  22320.99896739 -.00000306  00000-0 -10796-5 0  9993,2 52357  53.2177 225.1548 0003107  27.8178 332.2979 15.08834390 33316,6917.898,95.438,541.9119999999998,537.613,0.0
52357.0,STARLINK-3821,PAYLOAD,2022-11-17 03:09:17,15.08834536,0.0003188999999999,53.2164,224.5601,29.8208,330.2965,3.3018e-05,2.37e-06,0.0,0 STARLINK-3821,1 52357U 22045AC  22321.13144697  .00000237  00000-0  33018-4 0  9991,2 52357  53.2164 224.5601 0003189  29.8208 330.2965 15.08834536 33338,6917.897,95.438,541.9680000000002,537.556,0.0
52357.0,STARLINK-3821,PAYLOAD,2022-11-18 03:00:04,15.08837135,0.000323,53.216,220.0997,30.2091,329.9087,-2.9545e-06,-3.36e-06,0.0,0 STARLINK-3821,1 52357U 22045AC  22322.12504963 -.00000336  00000-0 -29545-5 0  9990,2 52357  53.2160 220.0997 0003230  30.2091 329.9087 15.08837135 33480,6917.889,95.438,541.989,537.52,0.0
52357.0,STARLINK-3821,PAYLOAD,2022-11-18 10:56:59,15.08842541,0.000328,53.218,218.6133,31.5884,328.5304,3.8393e-05,3.22e-06,0.0,0 STARLINK-3821,1 52357U 22045AC  22322.45624453  .00000322  00000-0  38393-4 0  9996,2 52357  53.2180 218.6133 0003280  31.5884 328.5304 15.08842541 33536,6917.873000000001,95.437,542.007,537.469,0.0
52357.0,STARLINK-3821,PAYLOAD,2022-11-19 02:50:51,15.0883755,0.0003228,53.2173,215.6399,33.5946,326.525,1.7791e-05,-6e-08,0.0,0 STARLINK-3821,1 52357U 22045AC  22323.11864844 -.00000006  00000-0  17791-4 0  9999,2 52357  53.2173 215.6399 0003228  33.5946 326.5250 15.08837550 33635,6917.888000000001,95.438,541.986,537.52,0.0
52357.0,STARLINK-3821,PAYLOAD,2022-11-20 02:41:38,15.08838455,0.0003263,53.2173,211.1797,32.0846,328.0344,-2.4919e-05,-6.85e-06,0.0,0 STARLINK-3821,1 52357U 22045AC  22324.11225045 -.00000685  00000-0 -24919-4 0  9998,2 52357  53.2173 211.1797 0003263  32.0846 328.0344 15.08838455 33782,6917.885,95.438,542.007,537.493,0.0
52357.0,STARLINK-3821,PAYLOAD,2022-11-20 20:10:52,15.08877693,0.0003552,53.217,207.9081,33.6711,326.4506,-0.00057281,-9.404e-05,0.0,0 STARLINK-3821,1 52357U 22045AC  22324.84088385 -.00009404  00000-0 -57281-3 0  9997,2 52357  53.2170 207.9081 0003552  33.6711 326.4506 15.08877693 33898,6917.765,95.435,542.087,537.173,0.0
52357.0,STARLINK-3821,PAYLOAD,2022-11-21 02:32:25,15.08834777,0.000331,53.2173,206.7189,31.017,329.1017,1.7450999999999996e-06,-2.61e-06,0.0,0 STARLINK-3821,1 52357U 22045AC  22325.10585358 -.00000261  00000-0  17451-5 0  9997,2 52357  53.2173 206.7189 0003310  31.0170 329.1017 15.08834777 33938,6917.896,95.438,542.0509999999998,537.472,0.0
52357.0,STARLINK-3821,PAYLOAD,2022-11-21 20:01:40,15.08787042,0.0003562,53.2164,203.4479,31.3752,328.7452,0.00056612,8.72e-05,0.0,0 STARLINK-3821,1 52357U 22045AC  22325.83449658  .00008720  00000-0  56612-3 0  9996,2 52357  53.2164 203.4479 0003562  31.3752 328.7452 15.08787042 34045,6918.042,95.441,542.371,537.443,0.0
